[{"OBJECT_NAME":"STARLINK-34973","OBJECT_ID":"2025-179R","EPOCH":"2026-03-09T16:46:12.908928","MEAN_MOTION":15.05653681,"ECCENTRICITY":9.931e-5,"INCLINATION":97.6024,"RA_OF_ASC_NODE":113.0365,"ARG_OF_PERICENTER":114.3648,"MEAN_ANOMALY":245.7682,"EPHEMERIS_TYPE":0,"CLASSIFICATION_TYPE":"U","NORAD_CAT_ID":65250,"ELEMENT_SET_NO":999,"REV_AT_EPOCH":3181,"BSTAR":0.00019660226,"MEAN_MOTION_DOT":2.777e-5,"MEAN_MOTION_DDOT":0},{"OBJECT_NAME":"CZ-6A DEB","OBJECT_ID":"2022-151AFF","EPOCH":"2026-03-08T15:34:13.969920","MEAN_MOTION":15.07686186,"ECCENTRICITY":0.00385412,"INCLINATION":98.6214,"RA_OF_ASC_NODE":147.2095,"ARG_OF_PERICENTER":177.326,"MEAN_ANOMALY":182.8178,"EPHEMERIS_TYPE":0,"CLASSIFICATION_TYPE":"U","NORAD_CAT_ID":56631,"ELEMENT_SET_NO":999,"REV_AT_EPOCH":15333,"BSTAR":0.0088285077,"MEAN_MOTION_DOT":0.00139408,"MEAN_MOTION_DDOT":0}]
